start=new Date('2022-05-08T00:00:00.000Z').valueOf();
sats=[{"OBJECT_TYPE":"PAYLOAD","ARG_OF_PERICENTER":"53.4157","RCS_SIZE":"LARGE","REV_AT_EPOCH":"360","SEMIMAJOR_AXIS":"6925.446","TLE_LINE1":"1 48277U 21036B   22127.58334491  .00048884  00000-0  32808-2 0  9996","BSTAR":"0.00328080000000","EPHEMERIS_TYPE":"0","ECCENTRICITY":"0.00016620","MEAN_ANOMALY":"41.7984","COUNTRY_CODE":"US","MEAN_MOTION_DOT":"0.00048884","OBJECT_ID":"2021-036B","FILE":"3433971","CENTER_NAME":"EARTH","TIME_SYSTEM":"UTC","EPOCH":"2022-05-07T14:00:01.000224","PERIOD":"95.594","SITE":"AFETR","MEAN_ELEMENT_THEORY":"SGP4","MEAN_MOTION_DDOT":"0.0000000000000","TLE_LINE2":"2 48277  53.0539 185.9274 0001662  53.4157  41.7984 15.06368232  3609","DECAY_DATE":null,"OBJECT_NAME":"STARLINK-2569","RA_OF_ASC_NODE":"185.9274","INCLINATION":"53.0539","ELEMENT_SET_NO":"999","NORAD_CAT_ID":"48277","GP_ID":"202926180","CLASSIFICATION_TYPE":"U","REF_FRAME":"TEME","PERIAPSIS":"546.160","APOAPSIS":"548.462","LAUNCH_DATE":"2021-04-29","MEAN_MOTION":"15.06368232"},{"TIME_SYSTEM":"UTC","EPOCH":"2022-05-07T14:00:01.000224","PERIOD":"95.594","COUNTRY_CODE":"US","ECCENTRICITY":"0.00021450","MEAN_ANOMALY":"211.6123","MEAN_MOTION_DOT":"0.00037566","CENTER_NAME":"EARTH","OBJECT_ID":"2021-036C","FILE":"3433971","TLE_LINE1":"1 48278U 21036C   22127.58334491  .00037566  00000-0  25292-2 0  9991","SEMIMAJOR_AXIS":"6925.430","EPHEMERIS_TYPE":"0","BSTAR":"0.00252920000000","OBJECT_TYPE":"PAYLOAD","ARG_OF_PERICENTER":"41.1555","REV_AT_EPOCH":"360","RCS_SIZE":"LARGE","PERIAPSIS":"545.810","APOAPSIS":"548.781","MEAN_MOTION":"15.06373416","LAUNCH_DATE":"2021-04-29","NORAD_CAT_ID":"48278","ELEMENT_SET_NO":"999","GP_ID":"202925929","CLASSIFICATION_TYPE":"U","REF_FRAME":"TEME","RA_OF_ASC_NODE":"201.0051","INCLINATION":"53.0457","SITE":"AFETR","TLE_LINE2":"2 48278  53.0457 201.0051 0002145  41.1555 211.6123 15.06373416  3608","MEAN_ELEMENT_THEORY":"SGP4","MEAN_MOTION_DDOT":"0.0000000000000","DECAY_DATE":null,"OBJECT_NAME":"STARLINK-2543"},{"EPHEMERIS_TYPE":"0","BSTAR":"-0.00086663000000","TLE_LINE1":"1 48279U 21036D   22127.91667824 -.00013169  00000-0 -86663-3 0  9993","SEMIMAJOR_AXIS":"6925.328","ARG_OF_PERICENTER":"46.5462","OBJECT_TYPE":"PAYLOAD","REV_AT_EPOCH":"5838","RCS_SIZE":"LARGE","TIME_SYSTEM":"UTC","EPOCH":"2022-05-07T22:00:00.999936","PERIOD":"95.592","MEAN_MOTION_DOT":"-0.00013169","COUNTRY_CODE":"US","ECCENTRICITY":"0.00017280","MEAN_ANOMALY":"254.8699","CENTER_NAME":"EARTH","OBJECT_ID":"2021-036D","FILE":"3434019","INCLINATION":"53.0528","RA_OF_ASC_NODE":"199.4332","SITE":"AFETR","OBJECT_NAME":"STARLINK-2580","DECAY_DATE":null,"TLE_LINE2":"2 48279  53.0528 199.4332 0001728  46.5462 254.8699 15.06406626 58384","MEAN_ELEMENT_THEORY":"SGP4","MEAN_MOTION_DDOT":"0.0000000000000","PERIAPSIS":"545.997","MEAN_MOTION":"15.06406626","LAUNCH_DATE":"2021-04-29","APOAPSIS":"548.390","NORAD_CAT_ID":"48279","ELEMENT_SET_NO":"999","REF_FRAME":"TEME","CLASSIFICATION_TYPE":"U","GP_ID":"202929361"},{"TLE_LINE1":"1 48280U 21036E   22127.52295923  .00003815  00000-0  27487-3 0  9993","SEMIMAJOR_AXIS":"6925.339","EPHEMERIS_TYPE":"0","BSTAR":"0.00027487000000","REV_AT_EPOCH":"5676","RCS_SIZE":"LARGE","OBJECT_TYPE":"PAYLOAD","ARG_OF_PERICENTER":"82.9074","PERIOD":"95.592","EPOCH":"2022-05-07T12:33:03.677472","TIME_SYSTEM":"UTC","CENTER_NAME":"EARTH","FILE":"3433971","OBJECT_ID":"2021-036E","COUNTRY_CODE":"US","ECCENTRICITY":"0.00016040","MEAN_ANOMALY":"277.2097","MEAN_MOTION_DOT":"0.00003815","RA_OF_ASC_NODE":"271.1817","INCLINATION":"53.0549","TLE_LINE2":"2 48280  53.0549 271.1817 0001604  82.9074 277.2097 15.06403049 56768","MEAN_MOTION_DDOT":"0.0000000000000","MEAN_ELEMENT_THEORY":"SGP4","DECAY_DATE":null,"OBJECT_NAME":"STARLINK-2565","SITE":"AFETR","APOAPSIS":"548.315","MEAN_MOTION":"15.06403049","LAUNCH_DATE":"2021-04-29","PERIAPSIS":"546.093","GP_ID":"202924930","CLASSIFICATION_TYPE":"U","REF_FRAME":"TEME","NORAD_CAT_ID":"48280","ELEMENT_SET_NO":"999"},{"MEAN_MOTION_DOT":"0.00002398","ECCENTRICITY":"0.00015530","MEAN_ANOMALY":"281.6158","COUNTRY_CODE":"US","OBJECT_ID":"2021-036F","FILE":"3433971","CENTER_NAME":"EARTH","TIME_SYSTEM":"UTC","EPOCH":"2022-05-07T12:51:38.839680","PERIOD":"95.592","ARG_OF_PERICENTER":"78.5005","OBJECT_TYPE":"PAYLOAD","RCS_SIZE":"LARGE","REV_AT_EPOCH":"5704","BSTAR":"0.00017982000000","EPHEMERIS_TYPE":"0","SEMIMAJOR_AXIS":"6925.360","TLE_LINE1":"1 48281U 21036F   22127.53586620  .00002398  00000-0  17982-3 0  9996","ELEMENT_SET_NO":"999","NORAD_CAT_ID":"48281","CLASSIFICATION_TYPE":"U","REF_FRAME":"TEME","GP_ID":"202925681","PERIAPSIS":"546.150","LAUNCH_DATE":"2021-04-29","MEAN_MOTION":"15.06396256","APOAPSIS":"548.301","SITE":"AFETR","OBJECT_NAME":"STARLINK-2520","DECAY_DATE":null,"MEAN_ELEMENT_THEORY":"SGP4","MEAN_MOTION_DDOT":"0.0000000000000","TLE_LINE2":"2 48281  53.0537 251.1370 0001553  78.5005 281.6158 15.06396256 57046","INCLINATION":"53.0537","RA_OF_ASC_NODE":"251.1370"},{"PERIAPSIS":"546.258","APOAPSIS":"548.140","LAUNCH_DATE":"2021-04-29","MEAN_MOTION":"15.06404680","ELEMENT_SET_NO":"999","NORAD_CAT_ID":"48282","GP_ID":"202926429","CLASSIFICATION_TYPE":"U","REF_FRAME":"TEME","RA_OF_ASC_NODE":"256.0330","INCLINATION":"53.0544","SITE":"AFETR","MEAN_ELEMENT_THEORY":"SGP4","MEAN_MOTION_DDOT":"0.0000000000000","TLE_LINE2":"2 48282  53.0544 256.0330 0001359  63.3223 296.7905 15.06404680 56983","DECAY_DATE":null,"OBJECT_NAME":"STARLINK-2558","TIME_SYSTEM":"UTC","EPOCH":"2022-05-07T13:25:27.862464","PERIOD":"95.592","MEAN_ANOMALY":"296.7905","ECCENTRICITY":"0.00013590","COUNTRY_CODE":"US","MEAN_MOTION_DOT":"0.00001744","FILE":"3433971","OBJECT_ID":"2021-036G","CENTER_NAME":"EARTH","SEMIMAJOR_AXIS":"6925.334","TLE_LINE1":"1 48282U 21036G   22127.55935026  .00001744  00000-0  13594-3 0  9996","BSTAR":"0.00013594000000","EPHEMERIS_TYPE":"0","OBJECT_TYPE":"PAYLOAD","ARG_OF_PERICENTER":"63.3223","RCS_SIZE":"LARGE","REV_AT_EPOCH":"5698"},{"BSTAR":"0.00004174100000","EPHEMERIS_TYPE":"0","SEMIMAJOR_AXIS":"6925.360","TLE_LINE1":"1 48283U 21036H   22127.55567455  .00000340  00000-0  41741-4 0  9991","ARG_OF_PERICENTER":"66.7043","OBJECT_TYPE":"PAYLOAD","RCS_SIZE":"LARGE","REV_AT_EPOCH":"5698","TIME_SYSTEM":"UTC","EPOCH":"2022-05-07T13:20:10.281120","PERIOD":"95.592","MEAN_MOTION_DOT":"0.00000340","ECCENTRICITY":"0.00014970","MEAN_ANOMALY":"293.4104","COUNTRY_CODE":"US","OBJECT_ID":"2021-036H","FILE":"3433971","CENTER_NAME":"EARTH","INCLINATION":"53.0554","RA_OF_ASC_NODE":"256.0531","SITE":"AFETR","DECAY_DATE":null,"OBJECT_NAME":"STARLINK-2516","MEAN_ELEMENT_THEORY":"SGP4","MEAN_MOTION_DDOT":"0.0000000000000","TLE_LINE2":"2 48283  53.0554 256.0531 0001497  66.7043 293.4104 15.06396232 56986","PERIAPSIS":"546.188","LAUNCH_DATE":"2021-04-29","MEAN_MOTION":"15.06396232","APOAPSIS":"548.262","ELEMENT_SET_NO":"999","NORAD_CAT_ID":"48283","CLASSIFICATION_TYPE":"U","REF_FRAME":"TEME","GP_ID":"202925180"},{"PERIOD":"95.592","EPOCH":"2022-05-07T19:37:00.217632","TIME_SYSTEM":"UTC","FILE":"3434147","OBJECT_ID":"2021-036J","CENTER_NAME":"EARTH","MEAN_ANOMALY":"300.5963","ECCENTRICITY":"0.00014660","COUNTRY_CODE":"US","MEAN_MOTION_DOT":"0.00000413","SEMIMAJOR_AXIS":"6925.334","TLE_LINE1":"1 48284U 21036J   22127.81736363  .00000413  00000-0  46603-4 0  9990","BSTAR":"0.00004660300000","EPHEMERIS_TYPE":"0","RCS_SIZE":"LARGE","REV_AT_EPOCH":"5759","OBJECT_TYPE":"PAYLOAD","ARG_OF_PERICENTER":"59.5171","APOAPSIS":"548.215","LAUNCH_DATE":"2021-04-29","MEAN_MOTION":"15.06404604","PERIAPSIS":"546.184","GP_ID":"202932398","CLASSIFICATION_TYPE":"U","REF_FRAME":"TEME","ELEMENT_SET_NO":"999","NORAD_CAT_ID":"48284","RA_OF_ASC_NODE":"254.8589","INCLINATION":"53.0554","MEAN_ELEMENT_THEORY":"SGP4","MEAN_MOTION_DDOT":"0.0000000000000","TLE_LINE2":"2 48284  53.0554 254.8589 0001466  59.5171 300.5963 15.06404604 57598","DECAY_DATE":null,"OBJECT_NAME":"STARLINK-2564","SITE":"AFETR"},{"OBJECT_TYPE":"PAYLOAD","ARG_OF_PERICENTER":"67.8429","REV_AT_EPOCH":"5697","RCS_SIZE":"LARGE","TLE_LINE1":"1 48285U 21036K   22127.54830215  .00000866  00000-0  77009-4 0  9998","SEMIMAJOR_AXIS":"6925.357","EPHEMERIS_TYPE":"0","BSTAR":"0.00007700900000","COUNTRY_CODE":"US","MEAN_ANOMALY":"292.2706","ECCENTRICITY":"0.00013740","MEAN_MOTION_DOT":"0.00000866","CENTER_NAME":"EARTH","FILE":"3433971","OBJECT_ID":"2021-036K","EPOCH":"2022-05-07T13:09:33.305760","TIME_SYSTEM":"UTC","PERIOD":"95.592","SITE":"AFETR","TLE_LINE2":"2 48285  53.0562 256.0814 0001374  67.8429 292.2706 15.06397184 56976","MEAN_ELEMENT_THEORY":"SGP4","MEAN_MOTION_DDOT":"0.0000000000000","OBJECT_NAME":"STARLINK-2548","DECAY_DATE":null,"RA_OF_ASC_NODE":"256.0814","INCLINATION":"53.0562","NORAD_CAT_ID":"48285","ELEMENT_SET_NO":"999","GP_ID":"202926181","CLASSIFICATION_TYPE":"U","REF_FRAME":"TEME","PERIAPSIS":"546.271","APOAPSIS":"548.174","MEAN_MOTION":"15.06397184","LAUNCH_DATE":"2021-04-29"},{"PERIOD":"95.592","EPOCH":"2022-05-07T17:50:51.546624","TIME_SYSTEM":"UTC","CENTER_NAME":"EARTH","FILE":"3434032","OBJECT_ID":"2021-036L","COUNTRY_CODE":"US","ECCENTRICITY":"0.00014280","MEAN_ANOMALY":"292.0129","MEAN_MOTION_DOT":"0.00000275","TLE_LINE1":"1 48286U 21036L   22127.74365216  .00000275  00000-0  37379-4 0  9995","SEMIMAJOR_AXIS":"6925.346","EPHEMERIS_TYPE":"0","BSTAR":"0.00003737900000","REV_AT_EPOCH":"5758","RCS_SIZE":"LARGE","OBJECT_TYPE":"PAYLOAD","ARG_OF_PERICENTER":"68.1011","APOAPSIS":"548.200","MEAN_MOTION":"15.06400824","LAUNCH_DATE":"2021-04-29","PERIAPSIS":"546.222","GP_ID":"202929833","REF_FRAME":"TEME","CLASSIFICATION_TYPE":"U","NORAD_CAT_ID":"48286","ELEMENT_SET_NO":"999","RA_OF_ASC_NODE":"255.2137","INCLINATION":"53.0553","TLE_LINE2":"2 48286  53.0553 255.2137 0001428  68.1011 292.0129 15.06400824 57588","MEAN_ELEMENT_THEORY":"SGP4","MEAN_MOTION_DDOT":"0.0000000000000","OBJECT_NAME":"STARLINK-2547","DECAY_DATE":null,"SITE":"AFETR"}];
